ASTRA 2E                
1 39285U 13056A   26177.95645144  .00000162  00000+0  00000+0 0  9990
2 39285   0.0621 330.2050 0002536 133.3416 184.3291  1.00270988 46517
FM-6                    
1 39360U 13058A   26177.64262777 -.00000005  00000+0  00000+0 0  9996
2 39360   0.0160  44.7997 0001592 136.0744 208.9331  1.00270785 46165
RADUGA-1M 3             
1 39375U 13062A   26177.31610985  .00000158  00000+0  00000+0 0  9997
2 39375   5.9810  72.2401 0001552 278.9664  72.0224  1.00274072 46193
SES-8                   
1 39460U 13071A   26177.72613980 -.00000258  00000+0  00000+0 0  9997
2 39460   0.0326 280.2848 0003044 173.9728 177.0013  1.00272380 44522
INMARSAT 5-F1           
1 39476U 13073A   26177.67815358  .00000039  00000+0  00000+0 0  9999
2 39476   0.0187  18.3666 0000686 349.3089 213.8863  1.00273006 45675
TKSAT-1 (TUPAC KATARI)  
1 39481U 13075A   26177.93352928 -.00000183  00000+0  00000+0 0  9996
2 39481   0.0404 153.7348 0002849 294.0347  76.1630  1.00272362 45700
EXPRESS-AM5             
1 39487U 13077A   26177.83594045 -.00000269  00000+0  00000+0 0  9996
2 39487   0.0139 300.2252 0000326  83.8506 331.8470  1.00269983 46454
GSAT-14                 
1 39498U 14001A   26177.89416613 -.00000065  00000+0  00000+0 0  9990
2 39498   0.0584  93.9443 0000619 136.4059  80.5455  1.00272261 45476
THAICOM 6               
1 39500U 14002A   26177.68118692 -.00000109  00000+0  00000+0 0  9997
2 39500   0.0518 121.5879 0004716 352.3212 124.6463  1.00269136 45555
TDRS 12                 
1 39504U 14004A   26177.92243141 -.00000262  00000+0  00000+0 0  9998
2 39504   3.9866  19.2585 0003168 205.6358 341.0695  1.00279914 44371
ABS-2                   
1 39508U 14006A   26177.89433947 -.00000074  00000+0  00000+0 0  9996
2 39508   0.0177  21.3423 0004010  59.0798 231.4638  1.00272107 45376
ATHENA-FIDUS            
1 39509U 14006B   26177.95827145  .00000165  00000+0  00000+0 0  9991
2 39509   0.0152  65.7159 0001592  24.0450 208.1008  1.00274218 45183
TURKSAT 4A              
1 39522U 14007A   26177.95913811  .00000158  00000+0  00000+0 0  9995
2 39522   0.0524 296.2063 0000542 359.9001   6.2444  1.00272506 45068
EXPRESS-AT1             
1 39612U 14010A   26177.92683561  .00000025  00000+0  00000+0 0  9995
2 39612   0.2832  85.6401 0004352  42.7496 183.8098  1.00306566 44910
EXPRESS-AT2             
1 39613U 14010B   26177.67676690  .00000090  00000+0  00000+0 0  9995
2 39613   0.0175 333.0420 0000502   7.1628 234.2252  1.00270390 44597
AMAZONAS 4A             
1 39616U 14011A   26177.93612929 -.00000241  00000+0  00000+0 0  9992
2 39616   0.0608 166.3788 0004370 309.5769  62.1072  1.00271329 44813
ASTRA 5B                
1 39617U 14011B   26177.95541144  .00000149  00000+0  00000+0 0  9991
2 39617   0.0528 325.2329 0002211 114.4293 202.8272  1.00272599 44768
IRNSS-1B                
1 39635U 14017A   26177.74786470  .00000145  00000+0  00000+0 0  9993
2 39635  28.9068 240.2389 0023551 196.9483 161.9840  1.00269902 44887
LUCH-5V                 
1 39727U 14023A   26177.70252914 -.00000262  00000+0  00000+0 0  9990
2 39727   5.1567  69.6542 0002461  49.0043 143.8337  1.00272015 44453
KAZSAT-3                
1 39728U 14023B   26177.53564498  .00000072  00000+0  00000+0 0  9993
2 39728   0.0104  14.2545 0000214  94.9490  56.7854  1.00272356 42556
EUTELSAT 3B             
1 39773U 14030A   26177.80885022  .00000031  00000+0  00000+0 0  9995
2 39773   0.0602 353.6075 0004270  99.7645 115.8342  1.00270711 44169
ASIASAT 8 (AMOS-7)      
1 40107U 14046A   26177.90031950 -.00000321  00000+0  00000+0 0  9992
2 40107   0.0419  79.2773 0001737  24.5415 240.6161  1.00270089102248
ASIASAT 6               
1 40141U 14052A   26177.90326618 -.00000350  00000+0  00000+0 0  9997
2 40141   0.0432 268.4258 0000859 186.6660 265.0048  1.00273927 43172
OPTUS 10                
1 40146U 14054A   26177.86919993 -.00000136  00000+0  00000+0 0  9995
2 40146   0.1030  23.5740 0002156  66.1917 294.1489  1.00271674 43121
MEASAT-3B               
1 40147U 14054B   26177.89763281 -.00000230  00000+0  00000+0 0  9991
2 40147   0.0441  48.5113 0002928  21.0789 260.0774  1.00270205 43007
HIMAWARI-8              
1 40267U 14060A   26177.90733954 -.00000264  00000+0  00000+0 0  9994
2 40267   0.0121 315.2307 0001136 135.4222 291.6652  1.00274633 42852
IRNSS-1C                
1 40269U 14061A   26176.68398682 -.00000155  00000+0  00000+0 0  9995
2 40269   6.5386  88.7700 0022592   3.4967 150.6688  1.00267985 42772
INTELSAT 30 (IS-30)     
1 40271U 14062A   26177.70743847 -.00000139  00000+0  00000+0 0  9992
2 40271   0.0246  50.4571 0001660 341.3643  42.6313  1.00270915  6883
ARSAT 1                 
1 40272U 14062B   26177.79394845 -.00000248  00000+0  00000+0 0  9993
2 40272   0.0181 325.6423 0002074 124.6542  38.6351  1.00271633 42723
EUTELSAT 53A            
1 40277U 14064A   26177.96130479  .00000110  00000+0  00000+0 0  9997
2 40277   0.0167 327.6552 0001175 204.4618 142.0320  1.00269472 41665
GSAT-16                 
1 40332U 14078A   26177.96165146  .00000096  00000+0  00000+0 0  9996
2 40332   0.0576 267.1953 0008067 177.2725 231.8730  1.00273925 42208
DIRECTV 14              
1 40333U 14078B   26177.93110260 -.00000114  00000+0  00000+0 0  9993
2 40333   0.0105  14.3038 0000258  28.5234 108.1819  1.00271063 42148
