OBJECT_NAME,OBJECT_ID,EPOCH,MEAN_MOTION,ECCENTRICITY,INCLINATION,RA_OF_ASC_NODE,ARG_OF_PERICENTER,MEAN_ANOMALY,EPHEMERIS_TYPE,CLASSIFICATION_TYPE,NORAD_CAT_ID,ELEMENT_SET_NO,REV_AT_EPOCH,BSTAR,MEAN_MOTION_DOT,MEAN_MOTION_DDOT
ASTRA 2E,2013-056A,2026-06-26T22:57:17.404416,1.00270988,.00025369,0.0621,330.2050,133.3416,184.3291,0,U,39285,999,4651,0,.162E-5,0
FM-6,2013-058A,2026-06-26T15:25:23.039328,1.00270785,.0001592,0.0160,44.7997,136.0744,208.9331,0,U,39360,999,4616,0,-.5E-7,0
RADUGA-1M 3,2013-062A,2026-06-26T07:35:11.891040,1.00274072,.0001552,5.9810,72.2401,278.9664,72.0224,0,U,39375,999,4619,0,.158E-5,0
SES-8,2013-071A,2026-06-26T17:25:38.478720,1.00272380,.00030442,0.0326,280.2848,173.9728,177.0013,0,U,39460,999,4452,0,-.258E-5,0
INMARSAT 5-F1,2013-073A,2026-06-26T16:16:32.469312,1.00273006,.0000686,0.0187,18.3666,349.3089,213.8863,0,U,39476,999,4567,0,.39E-6,0
TKSAT-1 (TUPAC KATARI),2013-075A,2026-06-26T22:24:16.929792,1.00272362,.00028494,0.0404,153.7348,294.0347,76.1630,0,U,39481,999,4570,0,-.183E-5,0
EXPRESS-AM5,2013-077A,2026-06-26T20:03:45.254880,1.00269983,.00003265,0.0139,300.2252,83.8506,331.8470,0,U,39487,999,4645,0,-.269E-5,0
GSAT-14,2014-001A,2026-06-26T21:27:35.953632,1.00272261,.00006199,0.0584,93.9443,136.4059,80.5455,0,U,39498,999,4547,0,-.65E-6,0
THAICOM 6,2014-002A,2026-06-26T16:20:54.549888,1.00269136,.00047162,0.0518,121.5879,352.3212,124.6463,0,U,39500,999,4555,0,-.109E-5,0
TDRS 12,2014-004A,2026-06-26T22:08:18.073824,1.00279914,.00031685,3.9866,19.2585,205.6358,341.0695,0,U,39504,999,4437,0,-.262E-5,0
ABS-2,2014-006A,2026-06-26T21:27:50.930208,1.00272107,.00040101,0.0177,21.3423,59.0798,231.4638,0,U,39508,999,4537,0,-.74E-6,0
ATHENA-FIDUS,2014-006B,2026-06-26T22:59:54.653280,1.00274218,.00015921,0.0152,65.7159,24.0450,208.1008,0,U,39509,999,4518,0,.165E-5,0
TURKSAT 4A,2014-007A,2026-06-26T23:01:09.532704,1.00272506,.00005421,0.0524,296.2063,359.9001,6.2444,0,U,39522,999,4506,0,.158E-5,0
EXPRESS-AT1,2014-010A,2026-06-26T22:14:38.596704,1.00306566,.0004352,0.2832,85.6401,42.7496,183.8098,0,U,39612,999,4491,0,.25E-6,0
EXPRESS-AT2,2014-010B,2026-06-26T16:14:32.660160,1.00270390,.00005025,0.0175,333.0420,7.1628,234.2252,0,U,39613,999,4459,0,.9E-6,0
AMAZONAS 4A,2014-011A,2026-06-26T22:28:01.570656,1.00271329,.00043707,0.0608,166.3788,309.5769,62.1072,0,U,39616,999,4481,0,-.241E-5,0
ASTRA 5B,2014-011B,2026-06-26T22:55:47.548416,1.00272599,.00022119,0.0528,325.2329,114.4293,202.8272,0,U,39617,999,4476,0,.149E-5,0
IRNSS-1B,2014-017A,2026-06-26T17:56:55.510080,1.00269902,.00235518,28.9068,240.2389,196.9483,161.9840,0,U,39635,999,4488,0,.145E-5,0
LUCH-5V,2014-023A,2026-06-26T16:51:38.517696,1.00272015,.00024617,5.1567,69.6542,49.0043,143.8337,0,U,39727,999,4445,0,-.262E-5,0
KAZSAT-3,2014-023B,2026-06-26T12:51:19.726272,1.00272356,.0000214,0.0104,14.2545,94.9490,56.7854,0,U,39728,999,4255,0,.72E-6,0
EUTELSAT 3B,2014-030A,2026-06-26T19:24:44.659008,1.00270711,.000427,0.0602,353.6075,99.7645,115.8342,0,U,39773,999,4416,0,.31E-6,0
ASIASAT 8 (AMOS-7),2014-046A,2026-06-26T21:36:27.604800,1.00270089,.00017379,0.0419,79.2773,24.5415,240.6161,0,U,40107,999,10224,0,-.321E-5,0
ASIASAT 6,2014-052A,2026-06-26T21:40:42.197952,1.00273927,.00008591,0.0432,268.4258,186.6660,265.0048,0,U,40141,999,4317,0,-.35E-5,0
OPTUS 10,2014-054A,2026-06-26T20:51:38.873952,1.00271674,.00021569,0.1030,23.5740,66.1917,294.1489,0,U,40146,999,4312,0,-.136E-5,0
MEASAT-3B,2014-054B,2026-06-26T21:32:35.474784,1.00270205,.00029288,0.0441,48.5113,21.0789,260.0774,0,U,40147,999,4300,0,-.23E-5,0
HIMAWARI-8,2014-060A,2026-06-26T21:46:34.136256,1.00274633,.00011363,0.0121,315.2307,135.4222,291.6652,0,U,40267,999,4285,0,-.264E-5,0
IRNSS-1C,2014-061A,2026-06-25T16:24:56.461248,1.00267985,.0022592,6.5386,88.7700,3.4967,150.6688,0,U,40269,999,4277,0,-.155E-5,0
INTELSAT 30 (IS-30),2014-062A,2026-06-26T16:58:42.683808,1.00270915,.000166,0.0246,50.4571,341.3643,42.6313,0,U,40271,999,688,0,-.139E-5,0
ARSAT 1,2014-062B,2026-06-26T19:03:17.146080,1.00271633,.00020747,0.0181,325.6423,124.6542,38.6351,0,U,40272,999,4272,0,-.248E-5,0
EUTELSAT 53A,2014-064A,2026-06-26T23:04:16.733856,1.00269472,.00011758,0.0167,327.6552,204.4618,142.0320,0,U,40277,999,4166,0,.11E-5,0
GSAT-16,2014-078A,2026-06-26T23:04:46.686144,1.00273925,.00080677,0.0576,267.1953,177.2725,231.8730,0,U,40332,999,4220,0,.96E-6,0
DIRECTV 14,2014-078B,2026-06-26T22:20:47.264640,1.00271063,.00002582,0.0105,14.3038,28.5234,108.1819,0,U,40333,999,4214,0,-.114E-5,0
